{"type": "FeatureCollection", "features": [{"type": "Feature", "properties": {"norad_id": 50032, "name": "COSMOS 1408 DEB", "group": "cosmos-1408-debris", "lat": 3.202063910465969, "lon": 61.40522620425793, "alt_km": 440.5422336482052, "timestamp": "2025-12-10T07:43:55.049925+00:00", "meta": {"OBJECT_NAME": "COSMOS 1408 DEB", "OBJECT_ID": "1982-092RU", "EPOCH": "2025-12-09T16:10:49.368000", "MEAN_MOTION": 15.45645402, "ECCENTRICITY": 0.0014995, "INCLINATION": 82.5641, "RA_OF_ASC_NODE": 61.6506, "ARG_OF_PERICENTER": 220.3653, "MEAN_ANOMALY": 139.6485, "EPHEMERIS_TYPE": 0, "CLASSIFICATION_TYPE": "U", "NORAD_CAT_ID": 50032, "ELEMENT_SET_NO": 999, "REV_AT_EPOCH": 22556, "BSTAR": 0.00015847, "MEAN_MOTION_DOT": 7.706e-05, "MEAN_MOTION_DDOT": 0}, "tle": {"line1": "1 50032U 82092RU  25343.67418250  .00007706  00000+0  15847-3 0  9998", "line2": "2 50032  82.5641  61.6506 0014995 220.3653 139.6485 15.45645402225563"}}, "geometry": {"type": "Point", "coordinates": [61.40522620425793, 3.202063910465969]}}, {"type": "Feature", "properties": {"norad_id": 50058, "name": "COSMOS 1408 DEB", "group": "cosmos-1408-debris", "lat": 45.142190420322045, "lon": 79.36331525987951, "alt_km": 367.4159800458565, "timestamp": "2025-12-10T07:43:55.049945+00:00", "meta": {"OBJECT_NAME": "COSMOS 1408 DEB", "OBJECT_ID": "1982-092SW", "EPOCH": "2025-12-09T06:57:57.674304", "MEAN_MOTION": 15.63783016, "ECCENTRICITY": 0.0016385, "INCLINATION": 82.6128, "RA_OF_ASC_NODE": 72.9508, "ARG_OF_PERICENTER": 110.9292, "MEAN_ANOMALY": 249.3723, "EPHEMERIS_TYPE": 0, "CLASSIFICATION_TYPE": "U", "NORAD_CAT_ID": 50058, "ELEMENT_SET_NO": 999, "REV_AT_EPOCH": 22750, "BSTAR": 0.0004022, "MEAN_MOTION_DOT": 0.00037979, "MEAN_MOTION_DDOT": 0}, "tle": {"line1": "1 50058U 82092SW  25343.29025086  .00037979  00000+0  40220-3 0  9993", "line2": "2 50058  82.6128  72.9508 0016385 110.9292 249.3723 15.63783016227501"}}, "geometry": {"type": "Point", "coordinates": [79.36331525987951, 45.142190420322045]}}, {"type": "Feature", "properties": {"norad_id": 50404, "name": "COSMOS 1408 DEB", "group": "cosmos-1408-debris", "lat": -54.72259874035971, "lon": 48.67460856713107, "alt_km": 427.69064733666164, "timestamp": "2025-12-10T07:43:55.049958+00:00", "meta": {"OBJECT_NAME": "COSMOS 1408 DEB", "OBJECT_ID": "1982-092ADS", "EPOCH": "2025-12-09T02:07:31.133856", "MEAN_MOTION": 15.1299152, "ECCENTRICITY": 0.01734954, "INCLINATION": 82.2038, "RA_OF_ASC_NODE": 218.7693, "ARG_OF_PERICENTER": 211.4724, "MEAN_ANOMALY": 147.6039, "EPHEMERIS_TYPE": 0, "CLASSIFICATION_TYPE": "U", "NORAD_CAT_ID": 50404, "ELEMENT_SET_NO": 999, "REV_AT_EPOCH": 21138, "BSTAR": 0.0031720673, "MEAN_MOTION_DOT": 0.00081978, "MEAN_MOTION_DDOT": 0}, "tle": {"line1": "1 50404U 82092ADS 25343.08855479  .00081978  00000+0  31721-2 0  9995", "line2": "2 50404  82.2038 218.7693 0173495 211.4724 147.6039 15.12991520211384"}}, "geometry": {"type": "Point", "coordinates": [48.67460856713107, -54.72259874035971]}}, {"type": "Feature", "properties": {"norad_id": 50621, "name": "COSMOS 1408 DEB", "group": "cosmos-1408-debris", "lat": 52.76703684851938, "lon": -113.19112388670554, "alt_km": 377.0407471401386, "timestamp": "2025-12-10T07:43:55.049969+00:00", "meta": {"OBJECT_NAME": "COSMOS 1408 DEB", "OBJECT_ID": "1982-092ALR", "EPOCH": "2025-12-09T06:30:05.287392", "MEAN_MOTION": 15.56380529, "ECCENTRICITY": 0.0028746, "INCLINATION": 82.5697, "RA_OF_ASC_NODE": 77.7916, "ARG_OF_PERICENTER": 165.1376, "MEAN_ANOMALY": 195.0731, "EPHEMERIS_TYPE": 0, "CLASSIFICATION_TYPE": "U", "NORAD_CAT_ID": 50621, "ELEMENT_SET_NO": 999, "REV_AT_EPOCH": 22196, "BSTAR": 0.00049841, "MEAN_MOTION_DOT": 0.00035943, "MEAN_MOTION_DDOT": 0}, "tle": {"line1": "1 50621U 82092ALR 25343.27089453  .00035943  00000+0  49841-3 0  9992", "line2": "2 50621  82.5697  77.7916 0028746 165.1376 195.0731 15.56380529221966"}}, "geometry": {"type": "Point", "coordinates": [-113.19112388670554, 52.76703684851938]}}]}